$$SOE
2461288.500000000, A.D. 2026-Sep-05 00:00:00.0000, -5.440897772488815E+07, 4.474815980325574E+08, 2.733153754236192E+06,
2461295.500000000, A.D. 2026-Sep-12 00:00:00.0000, -6.466109058187991E+07, 4.446556392468758E+08, 2.768338221529365E+06,
2461302.500000000, A.D. 2026-Sep-19 00:00:00.0000, -7.487875917080669E+07, 4.415917938073532E+08, 2.802043804337323E+06,
2461309.500000000, A.D. 2026-Sep-26 00:00:00.0000, -8.505613459756701E+07, 4.382894198286663E+08, 2.834238234685063E+06,
2461316.500000000, A.D. 2026-Oct-03 00:00:00.0000, -9.518728088572562E+07, 4.347480210519148E+08, 2.864889584991515E+06,
2461323.500000000, A.D. 2026-Oct-10 00:00:00.0000, -1.052661780956375E+08, 4.309672527932532E+08, 2.893966324493796E+06,
2461330.500000000, A.D. 2026-Oct-17 00:00:00.0000, -1.152867258152196E+08, 4.269469278388584E+08, 2.921437373781651E+06,
2461337.500000000, A.D. 2026-Oct-24 00:00:00.0000, -1.252427470098467E+08, 4.226870222460019E+08, 2.947272153424114E+06,
2461344.500000000, A.D. 2026-Oct-31 00:00:00.0000, -1.351279921437961E+08, 4.181876809644068E+08, 2.971440612268209E+06,
2461351.500000000, A.D. 2026-Nov-07 00:00:00.0000, -1.449361432447837E+08, 4.134492233313790E+08, 2.993913210491717E+06,
2461358.500000000, A.D. 2026-Nov-14 00:00:00.0000, -1.546608177209340E+08, 4.084721493066821E+08, 3.014660911640078E+06,
2461365.500000000, A.D. 2026-Nov-21 00:00:00.0000, -1.642955737508987E+08, 4.032571471079096E+08, 3.033655405525595E+06,
2461372.500000000, A.D. 2026-Nov-28 00:00:00.0000, -1.738339182502957E+08, 3.978050992145942E+08, 3.050869407700211E+06,
2461379.500000000, A.D. 2026-Dec-05 00:00:00.0000, -1.832693137992723E+08, 3.921170860557545E+08, 3.066276650291771E+06,
2461386.500000000, A.D. 2026-Dec-12 00:00:00.0000, -1.925951843718574E+08, 3.861943904651456E+08, 3.079851803475231E+06,
2461393.500000000, A.D. 2026-Dec-19 00:00:00.0000, -2.018049217552098E+08, 3.800385028842289E+08, 3.091570501035601E+06,
2461400.500000000, A.D. 2026-Dec-26 00:00:00.0000, -2.108918927987761E+08, 3.736511264133667E+08, 3.101409412218004E+06,
2461407.500000000, A.D. 2027-Jan-02 00:00:00.0000, -2.198494472152166E+08, 3.670341814864087E+08, 3.109346319175690E+06,
2461414.500000000, A.D. 2027-Jan-09 00:00:00.0000, -2.286709258139561E+08, 3.601898101553503E+08, 3.115360191089392E+06,
2461421.500000000, A.D. 2027-Jan-16 00:00:00.0000, -2.373496691285494E+08, 3.531203799619640E+08, 3.119431252404645E+06,
2461428.500000000, A.D. 2027-Jan-23 00:00:00.0000, -2.458790263853314E+08, 3.458284873258799E+08, 3.121541037482008E+06,
2461435.500000000, A.D. 2027-Jan-30 00:00:00.0000, -2.542523646151062E+08, 3.383169603699456E+08, 3.121672410136029E+06,
2461442.500000000, A.D. 2027-Feb-06 00:00:00.0000, -2.624630774691905E+08, 3.305888614899800E+08, 3.119809536447197E+06,
2461449.500000000, A.D. 2027-Feb-13 00:00:00.0000, -2.705045941842965E+08, 3.226474908550307E+08, 3.115937952251285E+06,
2461456.500000000, A.D. 2027-Feb-20 00:00:00.0000, -2.783703910424609E+08, 3.144963900156430E+08, 3.110044876811415E+06,
2461463.500000000, A.D. 2027-Feb-27 00:00:00.0000, -2.860540039064343E+08, 3.061393423756175E+08, 3.102119381508201E+06,
2461470.500000000, A.D. 2027-Mar-06 00:00:00.0000, -2.935490387851483E+08, 2.975803724160709E+08, 3.092152293771267E+06,
2461477.500000000, A.D. 2027-Mar-13 00:00:00.0000, -3.008491820036238E+08, 2.888237456917772E+08, 3.080136150076985E+06,
2461484.500000000, A.D. 2027-Mar-20 00:00:00.0000, -3.079482110763007E+08, 2.798739687409621E+08, 3.066065232709929E+06,
2461491.500000000, A.D. 2027-Mar-27 00:00:00.0000, -3.148400060455785E+08, 2.707357883357071E+08, 3.049935626453012E+06,
2461498.500000000, A.D. 2027-Apr-03 00:00:00.0000, -3.215185610434937E+08, 2.614141900021771E+08, 3.031745272359252E+06,
2461505.500000000, A.D. 2027-Apr-10 00:00:00.0000, -3.279779959737879E+08, 2.519143958130967E+08, 3.011494014535770E+06,
2461512.500000000, A.D. 2027-Apr-17 00:00:00.0000, -3.342125682483768E+08, 2.422418614204845E+08, 2.989183636417001E+06,
2461519.500000000, A.D. 2027-Apr-24 00:00:00.0000, -3.402166844527337E+08, 2.324022722520035E+08, 2.964817873874560E+06,
2461526.500000000, A.D. 2027-May-01 00:00:00.0000, -3.459849115920616E+08, 2.224015388876393E+08, 2.938402379691005E+06,
2461533.500000000, A.D. 2027-May-08 00:00:00.0000, -3.515119875605302E+08, 2.122457923573896E+08, 2.909944672137275E+06,
2461540.500000000, A.D. 2027-May-15 00:00:00.0000, -3.567928322797875E+08, 2.019413803096251E+08, 2.879454282573342E+06,
2461547.500000000, A.D. 2027-May-22 00:00:00.0000, -3.618225610202728E+08, 1.914948614608393E+08, 2.846943033273965E+06,
2461554.500000000, A.D. 2027-May-29 00:00:00.0000, -3.665964964947894E+08, 1.809129968659040E+08, 2.812425017575204E+06,
2461561.500000000, A.D. 2027-Jun-05 00:00:00.0000, -3.711101787820016E+08, 1.702027411481842E+08, 2.775916457375765E+06,
2461568.500000000, A.D. 2027-Jun-12 00:00:00.0000, -3.753593750349939E+08, 1.593712341332183E+08, 2.737435657279417E+06,
2461575.500000000, A.D. 2027-Jun-19 00:00:00.0000, -3.793400892553628E+08, 1.484257919708249E+08, 2.697003009064205E+06,
2461582.500000000, A.D. 2027-Jun-26 00:00:00.0000, -3.830485718015615E+08, 1.373738975088328E+08, 2.654640999510728E+06,
2461589.500000000, A.D. 2027-Jul-03 00:00:00.0000, -3.864813284483184E+08, 1.262231899546224E+08, 2.610374210316040E+06,
2461596.500000000, A.D. 2027-Jul-10 00:00:00.0000, -3.896351289115706E+08, 1.149814538651322E+08, 2.564229307620995E+06,
2461603.500000000, A.D. 2027-Jul-17 00:00:00.0000, -3.925070147565999E+08, 1.036566074626850E+08, 2.516235014856972E+06,
2461610.500000000, A.D. 2027-Jul-24 00:00:00.0000, -3.950943064900030E+08, 9.225669025416511E+07, 2.466422049668312E+06,
2461617.500000000, A.D. 2027-Jul-31 00:00:00.0000, -3.973946093843756E+08, 8.078985023318766E+07, 2.414823006680954E+06,
2461624.500000000, A.D. 2027-Aug-07 00:00:00.0000, -3.994058182004216E+08, 6.926433186433011E+07, 2.361472298879609E+06,
2461631.500000000, A.D. 2027-Aug-14 00:00:00.0000, -4.011261230770717E+08, 5.768846464636647E+07, 2.306406347999647E+06,
2461638.500000000, A.D. 2027-Aug-21 00:00:00.0000, -4.025540159473755E+08, 4.607064894521725E+07, 2.249663692213356E+06,
2461645.500000000, A.D. 2027-Aug-28 00:00:00.0000, -4.036882940261638E+08, 3.441934035963777E+07, 2.191284795031724E+06,
2461652.500000000, A.D. 2027-Sep-04 00:00:00.0000, -4.045280615271493E+08, 2.274303518158014E+07, 2.131311868772963E+06,
2461659.500000000, A.D. 2027-Sep-11 00:00:00.0000, -4.050727309877043E+08, 1.105025634796060E+07, 2.069788786724483E+06,
2461666.500000000, A.D. 2027-Sep-18 00:00:00.0000, -4.053220240587908E+08, -6.504607074783209E+05, 2.006761018689371E+06,
2461673.500000000, A.D. 2027-Sep-25 00:00:00.0000, -4.052759715280237E+08, -1.235058232071118E+07, 1.942275562675754E+06,
2461680.500000000, A.D. 2027-Oct-02 00:00:00.0000, -4.049349125048567E+08, -2.404159089588419E+07, 1.876380868100744E+06,
2461687.500000000, A.D. 2027-Oct-09 00:00:00.0000, -4.042994927565206E+08, -3.571499918043101E+07, 1.809126747986542E+06,
2461694.500000000, A.D. 2027-Oct-16 00:00:00.0000, -4.033706621475816E+08, -4.736236451117434E+07, 1.740564269847924E+06,
2461701.500000000, A.D. 2027-Oct-23 00:00:00.0000, -4.021496709425122E+08, -5.897530297719613E+07, 1.670745601132300E+06,
2461708.500000000, A.D. 2027-Oct-30 00:00:00.0000, -4.006380646186019E+08, -7.054550283145329E+07, 1.599723825066414E+06,
2461715.500000000, A.D. 2027-Nov-06 00:00:00.0000, -3.988376783778646E+08, -8.206473596878311E+07, 1.527552926219180E+06,
2461722.500000000, A.D. 2027-Nov-13 00:00:00.0000, -3.967506333737652E+08, -9.352486949673736E+07, 1.454287958491780E+06,
2461729.500000000, A.D. 2027-Nov-20 00:00:00.0000, -3.943793317877731E+08, -1.049178795384302E+08, 1.379984951061763E+06,
2461736.500000000, A.D. 2027-Nov-27 00:00:00.0000, -3.917264491771571E+08, -1.162358642575763E+08, 1.304700646848582E+06,
2461743.500000000, A.D. 2027-Dec-04 00:00:00.0000, -3.887949261563340E+08, -1.274710551504625E+08, 1.228492334510490E+06,
2461750.500000000, A.D. 2027-Dec-11 00:00:00.0000, -3.855879600045253E+08, -1.386158275337716E+08, 1.151417746107958E+06,
2461757.500000000, A.D. 2027-Dec-18 00:00:00.0000, -3.821089959718192E+08, -1.496627105369253E+08, 1.073534967786938E+06,
2461764.500000000, A.D. 2027-Dec-25 00:00:00.0000, -3.783617181812075E+08, -1.606043965738174E+08, 9.949023497784734E+05,
2461771.500000000, A.D. 2028-Jan-01 00:00:00.0000, -3.743500401352684E+08, -1.714337502557953E+08, 9.155784136368781E+05,
$$EOE